[{"OBJECT_NAME":"GAOFEN-1 04","OBJECT_ID":"2018-031D","EPOCH":"2026-03-09T23:14:02.472288","MEAN_MOTION":14.76437127,"ECCENTRICITY":0.00019063,"INCLINATION":98.0641,"RA_OF_ASC_NODE":131.7673,"ARG_OF_PERICENTER":79.011,"MEAN_ANOMALY":281.1314,"EPHEMERIS_TYPE":0,"CLASSIFICATION_TYPE":"U","NORAD_CAT_ID":43262,"ELEMENT_SET_NO":999,"REV_AT_EPOCH":42804,"BSTAR":0.00013515427,"MEAN_MOTION_DOT":8.88e-6,"MEAN_MOTION_DDOT":0},{"OBJECT_NAME":"KINEIS-2E","OBJECT_ID":"2025-028D","EPOCH":"2026-03-09T16:44:14.801856","MEAN_MOTION":14.7671567,"ECCENTRICITY":0.00019431,"INCLINATION":97.9078,"RA_OF_ASC_NODE":122.4137,"ARG_OF_PERICENTER":111.3454,"MEAN_ANOMALY":248.7964,"EPHEMERIS_TYPE":0,"CLASSIFICATION_TYPE":"U","NORAD_CAT_ID":62931,"ELEMENT_SET_NO":999,"REV_AT_EPOCH":5809,"BSTAR":0.000272559,"MEAN_MOTION_DOT":1.858e-5,"MEAN_MOTION_DDOT":0}]
